<?xml version="1.0" encoding="UTF-8"?>
<q:quakeml xmlns:q="http://quakeml.org/xmlns/quakeml-rt/1.2" xmlns="http://quakeml.org/xmlns/bed-rt/1.2" xmlns:vs="http://quakeml.org/xmlns/vstypes/0.1">
  <eventParameters publicID="smi:ch.ethz.sed/sc3a/NA">
    <stationMagnitude publicID="smi:ch.ethz.sed/sc3a/StationMagnitude/20220216071256.88.72141327">
      <originID>smi:ch.ethz.sed/sc3a/NLL.20220216071255.630177.6055</originID>
      <mag>
        <value>6.153024197</value>
      </mag>
      <type>MVS</type>
      <waveformID networkCode="GI" stationCode="CMSM" channelCode="HH"/>
      <creationInfo>
        <agencyID>insivumeh</agencyID>
        <author>scvsmag0@EW-SYSTEM</author>
        <creationTime>2022-02-16T07:12:56.879976Z</creationTime>
        <version>9</version>
      </creationInfo>
    </stationMagnitude>
    <stationMagnitude publicID="smi:ch.ethz.sed/sc3a/StationMagnitude/20220216071256.880214.72141328">
      <originID>smi:ch.ethz.sed/sc3a/NLL.20220216071255.630177.6055</originID>
      <mag>
        <value>7.031209469</value>
      </mag>
      <type>MVS</type>
      <waveformID networkCode="GI" stationCode="ESSJ" locationCode="00" channelCode="HN"/>
      <creationInfo>
        <agencyID>insivumeh</agencyID>
        <author>scvsmag0@EW-SYSTEM</author>
        <creationTime>2022-02-16T07:12:56.880203Z</creationTime>
        <version>9</version>
      </creationInfo>
    </stationMagnitude>
    <stationMagnitude publicID="smi:ch.ethz.sed/sc3a/StationMagnitude/20220216071256.880439.72141329">
      <originID>smi:ch.ethz.sed/sc3a/NLL.20220216071255.630177.6055</originID>
      <mag>
        <value>6.152926922</value>
      </mag>
      <type>MVS</type>
      <waveformID networkCode="GI" stationCode="ESTQ" channelCode="HH"/>
      <creationInfo>
        <agencyID>insivumeh</agencyID>
        <author>scvsmag0@EW-SYSTEM</author>
        <creationTime>2022-02-16T07:12:56.880428Z</creationTime>
        <version>9</version>
      </creationInfo>
    </stationMagnitude>
    <stationMagnitude publicID="smi:ch.ethz.sed/sc3a/StationMagnitude/20220216071256.880642.72141330">
      <originID>smi:ch.ethz.sed/sc3a/NLL.20220216071255.630177.6055</originID>
      <mag>
        <value>6.708938599</value>
      </mag>
      <type>MVS</type>
      <waveformID networkCode="GI" stationCode="GCG4" locationCode="00" channelCode="EH"/>
      <creationInfo>
        <agencyID>insivumeh</agencyID>
        <author>scvsmag0@EW-SYSTEM</author>
        <creationTime>2022-02-16T07:12:56.880631Z</creationTime>
        <version>9</version>
      </creationInfo>
    </stationMagnitude>
    <stationMagnitude publicID="smi:ch.ethz.sed/sc3a/StationMagnitude/20220216071256.880838.72141331">
      <originID>smi:ch.ethz.sed/sc3a/NLL.20220216071255.630177.6055</originID>
      <mag>
        <value>5.740368366</value>
      </mag>
      <type>MVS</type>
      <waveformID networkCode="GI" stationCode="GUVC" channelCode="HH"/>
      <creationInfo>
        <agencyID>insivumeh</agencyID>
        <author>scvsmag0@EW-SYSTEM</author>
        <creationTime>2022-02-16T07:12:56.880827Z</creationTime>
        <version>9</version>
      </creationInfo>
    </stationMagnitude>
    <stationMagnitude publicID="smi:ch.ethz.sed/sc3a/StationMagnitude/20220216071256.881119.72141332">
      <originID>smi:ch.ethz.sed/sc3a/NLL.20220216071255.630177.6055</originID>
      <mag>
        <value>5.73936224</value>
      </mag>
      <type>MVS</type>
      <waveformID networkCode="GI" stationCode="RECH" locationCode="00" channelCode="EH"/>
      <creationInfo>
        <agencyID>insivumeh</agencyID>
        <author>scvsmag0@EW-SYSTEM</author>
        <creationTime>2022-02-16T07:12:56.881109Z</creationTime>
        <version>9</version>
      </creationInfo>
    </stationMagnitude>
    <stationMagnitude publicID="smi:ch.ethz.sed/sc3a/StationMagnitude/20220216071256.881337.72141333">
      <originID>smi:ch.ethz.sed/sc3a/NLL.20220216071255.630177.6055</originID>
      <mag>
        <value>5.574707508</value>
      </mag>
      <type>MVS</type>
      <waveformID networkCode="GI" stationCode="RERE" locationCode="00" channelCode="HN"/>
      <creationInfo>
        <agencyID>insivumeh</agencyID>
        <author>scvsmag0@EW-SYSTEM</author>
        <creationTime>2022-02-16T07:12:56.88132Z</creationTime>
        <version>9</version>
      </creationInfo>
    </stationMagnitude>
    <stationMagnitude publicID="smi:ch.ethz.sed/sc3a/StationMagnitude/20220216071256.881668.72141334">
      <originID>smi:ch.ethz.sed/sc3a/NLL.20220216071255.630177.6055</originID>
      <mag>
        <value>6.152029514</value>
      </mag>
      <type>MVS</type>
      <waveformID networkCode="GI" stationCode="STG8" channelCode="HH"/>
      <creationInfo>
        <agencyID>insivumeh</agencyID>
        <author>scvsmag0@EW-SYSTEM</author>
        <creationTime>2022-02-16T07:12:56.881652Z</creationTime>
        <version>9</version>
      </creationInfo>
    </stationMagnitude>
    <stationMagnitude publicID="smi:ch.ethz.sed/sc3a/StationMagnitude/20220216071256.881945.72141335">
      <originID>smi:ch.ethz.sed/sc3a/NLL.20220216071255.630177.6055</originID>
      <mag>
        <value>5.618082047</value>
      </mag>
      <type>MVS</type>
      <waveformID networkCode="GI" stationCode="SUCU" channelCode="HH"/>
      <creationInfo>
        <agencyID>insivumeh</agencyID>
        <author>scvsmag0@EW-SYSTEM</author>
        <creationTime>2022-02-16T07:12:56.881933Z</creationTime>
        <version>9</version>
      </creationInfo>
    </stationMagnitude>
    <stationMagnitude publicID="smi:ch.ethz.sed/sc3a/StationMagnitude/20220216071256.959436.47467321">
      <originID>smi:ch.ethz.sed/sc3a/NLL.20220216071255.630177.6055</originID>
      <mag>
        <value>6.16864872</value>
      </mag>
      <type>MVS</type>
      <waveformID networkCode="GI" stationCode="CMSM" channelCode="HH"/>
      <creationInfo>
        <agencyID>insivumeh</agencyID>
        <author>scvsmag@EW-SYSTEM</author>
        <creationTime>2022-02-16T07:12:56.959405Z</creationTime>
        <version>9</version>
      </creationInfo>
    </stationMagnitude>
    <stationMagnitude publicID="smi:ch.ethz.sed/sc3a/StationMagnitude/20220216071256.959675.47467322">
      <originID>smi:ch.ethz.sed/sc3a/NLL.20220216071255.630177.6055</originID>
      <mag>
        <value>7.174260139</value>
      </mag>
      <type>MVS</type>
      <waveformID networkCode="GI" stationCode="ESSJ" locationCode="00" channelCode="HN"/>
      <creationInfo>
        <agencyID>insivumeh</agencyID>
        <author>scvsmag@EW-SYSTEM</author>
        <creationTime>2022-02-16T07:12:56.959662Z</creationTime>
        <version>9</version>
      </creationInfo>
    </stationMagnitude>
    <stationMagnitude publicID="smi:ch.ethz.sed/sc3a/StationMagnitude/20220216071256.960107.47467324">
      <originID>smi:ch.ethz.sed/sc3a/NLL.20220216071255.630177.6055</originID>
      <mag>
        <value>6.704905033</value>
      </mag>
      <type>MVS</type>
      <waveformID networkCode="GI" stationCode="GCG4" locationCode="00" channelCode="EH"/>
      <creationInfo>
        <agencyID>insivumeh</agencyID>
        <author>scvsmag@EW-SYSTEM</author>
        <creationTime>2022-02-16T07:12:56.960095Z</creationTime>
        <version>9</version>
      </creationInfo>
    </stationMagnitude>
    <stationMagnitude publicID="smi:ch.ethz.sed/sc3a/StationMagnitude/20220216071256.960273.47467325">
      <originID>smi:ch.ethz.sed/sc3a/NLL.20220216071255.630177.6055</originID>
      <mag>
        <value>5.765808582</value>
      </mag>
      <type>MVS</type>
      <waveformID networkCode="GI" stationCode="GUVC" channelCode="HH"/>
      <creationInfo>
        <agencyID>insivumeh</agencyID>
        <author>scvsmag@EW-SYSTEM</author>
        <creationTime>2022-02-16T07:12:56.960265Z</creationTime>
        <version>9</version>
      </creationInfo>
    </stationMagnitude>
    <stationMagnitude publicID="smi:ch.ethz.sed/sc3a/StationMagnitude/20220216071256.960458.47467326">
      <originID>smi:ch.ethz.sed/sc3a/NLL.20220216071255.630177.6055</originID>
      <mag>
        <value>5.83713007</value>
      </mag>
      <type>MVS</type>
      <waveformID networkCode="GI" stationCode="RECH" locationCode="00" channelCode="EH"/>
      <creationInfo>
        <agencyID>insivumeh</agencyID>
        <author>scvsmag@EW-SYSTEM</author>
        <creationTime>2022-02-16T07:12:56.960451Z</creationTime>
        <version>9</version>
      </creationInfo>
    </stationMagnitude>
    <stationMagnitude publicID="smi:ch.ethz.sed/sc3a/StationMagnitude/20220216071256.960571.47467327">
      <originID>smi:ch.ethz.sed/sc3a/NLL.20220216071255.630177.6055</originID>
      <mag>
        <value>5.590707779</value>
      </mag>
      <type>MVS</type>
      <waveformID networkCode="GI" stationCode="RERE" locationCode="00" channelCode="HN"/>
      <creationInfo>
        <agencyID>insivumeh</agencyID>
        <author>scvsmag@EW-SYSTEM</author>
        <creationTime>2022-02-16T07:12:56.960564Z</creationTime>
        <version>9</version>
      </creationInfo>
    </stationMagnitude>
    <stationMagnitude publicID="smi:ch.ethz.sed/sc3a/StationMagnitude/20220216071256.960768.47467330">
      <originID>smi:ch.ethz.sed/sc3a/NLL.20220216071255.630177.6055</originID>
      <mag>
        <value>5.616336823</value>
      </mag>
      <type>MVS</type>
      <waveformID networkCode="GI" stationCode="SUCU" channelCode="HH"/>
      <creationInfo>
        <agencyID>insivumeh</agencyID>
        <author>scvsmag@EW-SYSTEM</author>
        <creationTime>2022-02-16T07:12:56.96076Z</creationTime>
        <version>9</version>
      </creationInfo>
    </stationMagnitude>
    <stationMagnitude publicID="smi:ch.ethz.sed/sc3a/StationMagnitude/20220216071257.879939.72141764">
      <originID>smi:ch.ethz.sed/sc3a/NLL.20220216071255.630177.6055</originID>
      <mag>
        <value>6.153024197</value>
      </mag>
      <type>MVS</type>
      <waveformID networkCode="GI" stationCode="CMSM" channelCode="HH"/>
      <creationInfo>
        <agencyID>insivumeh</agencyID>
        <author>scvsmag0@EW-SYSTEM</author>
        <creationTime>2022-02-16T07:12:57.879917Z</creationTime>
        <version>10</version>
      </creationInfo>
    </stationMagnitude>
    <stationMagnitude publicID="smi:ch.ethz.sed/sc3a/StationMagnitude/20220216071257.880145.72141765">
      <originID>smi:ch.ethz.sed/sc3a/NLL.20220216071255.630177.6055</originID>
      <mag>
        <value>7.006572247</value>
      </mag>
      <type>MVS</type>
      <waveformID networkCode="GI" stationCode="ESSJ" locationCode="00" channelCode="HN"/>
      <creationInfo>
        <agencyID>insivumeh</agencyID>
        <author>scvsmag0@EW-SYSTEM</author>
        <creationTime>2022-02-16T07:12:57.880133Z</creationTime>
        <version>10</version>
      </creationInfo>
    </stationMagnitude>
    <stationMagnitude publicID="smi:ch.ethz.sed/sc3a/StationMagnitude/20220216071257.880356.72141766">
      <originID>smi:ch.ethz.sed/sc3a/NLL.20220216071255.630177.6055</originID>
      <mag>
        <value>6.152926922</value>
      </mag>
      <type>MVS</type>
      <waveformID networkCode="GI" stationCode="ESTQ" channelCode="HH"/>
      <creationInfo>
        <agencyID>insivumeh</agencyID>
        <author>scvsmag0@EW-SYSTEM</author>
        <creationTime>2022-02-16T07:12:57.880345Z</creationTime>
        <version>10</version>
      </creationInfo>
    </stationMagnitude>
    <stationMagnitude publicID="smi:ch.ethz.sed/sc3a/StationMagnitude/20220216071257.880554.72141767">
      <originID>smi:ch.ethz.sed/sc3a/NLL.20220216071255.630177.6055</originID>
      <mag>
        <value>6.708938599</value>
      </mag>
      <type>MVS</type>
      <waveformID networkCode="GI" stationCode="GCG4" locationCode="00" channelCode="EH"/>
      <creationInfo>
        <agencyID>insivumeh</agencyID>
        <author>scvsmag0@EW-SYSTEM</author>
        <creationTime>2022-02-16T07:12:57.880543Z</creationTime>
        <version>10</version>
      </creationInfo>
    </stationMagnitude>
    <stationMagnitude publicID="smi:ch.ethz.sed/sc3a/StationMagnitude/20220216071257.880762.72141768">
      <originID>smi:ch.ethz.sed/sc3a/NLL.20220216071255.630177.6055</originID>
      <mag>
        <value>5.740368366</value>
      </mag>
      <type>MVS</type>
      <waveformID networkCode="GI" stationCode="GUVC" channelCode="HH"/>
      <creationInfo>
        <agencyID>insivumeh</agencyID>
        <author>scvsmag0@EW-SYSTEM</author>
        <creationTime>2022-02-16T07:12:57.880751Z</creationTime>
        <version>10</version>
      </creationInfo>
    </stationMagnitude>
    <stationMagnitude publicID="smi:ch.ethz.sed/sc3a/StationMagnitude/20220216071257.881072.72141769">
      <originID>smi:ch.ethz.sed/sc3a/NLL.20220216071255.630177.6055</originID>
      <mag>
        <value>5.73936224</value>
      </mag>
      <type>MVS</type>
      <waveformID networkCode="GI" stationCode="RECH" locationCode="00" channelCode="EH"/>
      <creationInfo>
        <agencyID>insivumeh</agencyID>
        <author>scvsmag0@EW-SYSTEM</author>
        <creationTime>2022-02-16T07:12:57.88106Z</creationTime>
        <version>10</version>
      </creationInfo>
    </stationMagnitude>
    <stationMagnitude publicID="smi:ch.ethz.sed/sc3a/StationMagnitude/20220216071257.881249.72141770">
      <originID>smi:ch.ethz.sed/sc3a/NLL.20220216071255.630177.6055</originID>
      <mag>
        <value>5.574707508</value>
      </mag>
      <type>MVS</type>
      <waveformID networkCode="GI" stationCode="RERE" locationCode="00" channelCode="HN"/>
      <creationInfo>
        <agencyID>insivumeh</agencyID>
        <author>scvsmag0@EW-SYSTEM</author>
        <creationTime>2022-02-16T07:12:57.881238Z</creationTime>
        <version>10</version>
      </creationInfo>
    </stationMagnitude>
    <stationMagnitude publicID="smi:ch.ethz.sed/sc3a/StationMagnitude/20220216071257.881459.72141771">
      <originID>smi:ch.ethz.sed/sc3a/NLL.20220216071255.630177.6055</originID>
      <mag>
        <value>6.152029514</value>
      </mag>
      <type>MVS</type>
      <waveformID networkCode="GI" stationCode="STG8" channelCode="HH"/>
      <creationInfo>
        <agencyID>insivumeh</agencyID>
        <author>scvsmag0@EW-SYSTEM</author>
        <creationTime>2022-02-16T07:12:57.881448Z</creationTime>
        <version>10</version>
      </creationInfo>
    </stationMagnitude>
    <stationMagnitude publicID="smi:ch.ethz.sed/sc3a/StationMagnitude/20220216071257.881668.72141772">
      <originID>smi:ch.ethz.sed/sc3a/NLL.20220216071255.630177.6055</originID>
      <mag>
        <value>5.618082047</value>
      </mag>
      <type>MVS</type>
      <waveformID networkCode="GI" stationCode="SUCU" channelCode="HH"/>
      <creationInfo>
        <agencyID>insivumeh</agencyID>
        <author>scvsmag0@EW-SYSTEM</author>
        <creationTime>2022-02-16T07:12:57.881657Z</creationTime>
        <version>10</version>
      </creationInfo>
    </stationMagnitude>
    <stationMagnitude publicID="smi:ch.ethz.sed/sc3a/StationMagnitude/20220216071257.956975.47467614">
      <originID>smi:ch.ethz.sed/sc3a/NLL.20220216071255.630177.6055</originID>
      <mag>
        <value>6.16864872</value>
      </mag>
      <type>MVS</type>
      <waveformID networkCode="GI" stationCode="CMSM" channelCode="HH"/>
      <creationInfo>
        <agencyID>insivumeh</agencyID>
        <author>scvsmag@EW-SYSTEM</author>
        <creationTime>2022-02-16T07:12:57.956954Z</creationTime>
        <version>10</version>
      </creationInfo>
    </stationMagnitude>
    <stationMagnitude publicID="smi:ch.ethz.sed/sc3a/StationMagnitude/20220216071257.957138.47467615">
      <originID>smi:ch.ethz.sed/sc3a/NLL.20220216071255.630177.6055</originID>
      <mag>
        <value>7.150267601</value>
      </mag>
      <type>MVS</type>
      <waveformID networkCode="GI" stationCode="ESSJ" locationCode="00" channelCode="HN"/>
      <creationInfo>
        <agencyID>insivumeh</agencyID>
        <author>scvsmag@EW-SYSTEM</author>
        <creationTime>2022-02-16T07:12:57.95713Z</creationTime>
        <version>10</version>
      </creationInfo>
    </stationMagnitude>
    <stationMagnitude publicID="smi:ch.ethz.sed/sc3a/StationMagnitude/20220216071257.957441.47467617">
      <originID>smi:ch.ethz.sed/sc3a/NLL.20220216071255.630177.6055</originID>
      <mag>
        <value>6.704905033</value>
      </mag>
      <type>MVS</type>
      <waveformID networkCode="GI" stationCode="GCG4" locationCode="00" channelCode="EH"/>
      <creationInfo>
        <agencyID>insivumeh</agencyID>
        <author>scvsmag@EW-SYSTEM</author>
        <creationTime>2022-02-16T07:12:57.957434Z</creationTime>
        <version>10</version>
      </creationInfo>
    </stationMagnitude>
    <stationMagnitude publicID="smi:ch.ethz.sed/sc3a/StationMagnitude/20220216071257.957573.47467618">
      <originID>smi:ch.ethz.sed/sc3a/NLL.20220216071255.630177.6055</originID>
      <mag>
        <value>5.765808582</value>
      </mag>
      <type>MVS</type>
      <waveformID networkCode="GI" stationCode="GUVC" channelCode="HH"/>
      <creationInfo>
        <agencyID>insivumeh</agencyID>
        <author>scvsmag@EW-SYSTEM</author>
        <creationTime>2022-02-16T07:12:57.957566Z</creationTime>
        <version>10</version>
      </creationInfo>
    </stationMagnitude>
    <stationMagnitude publicID="smi:ch.ethz.sed/sc3a/StationMagnitude/20220216071257.957761.47467619">
      <originID>smi:ch.ethz.sed/sc3a/NLL.20220216071255.630177.6055</originID>
      <mag>
        <value>5.83713007</value>
      </mag>
      <type>MVS</type>
      <waveformID networkCode="GI" stationCode="RECH" locationCode="00" channelCode="EH"/>
      <creationInfo>
        <agencyID>insivumeh</agencyID>
        <author>scvsmag@EW-SYSTEM</author>
        <creationTime>2022-02-16T07:12:57.957754Z</creationTime>
        <version>10</version>
      </creationInfo>
    </stationMagnitude>
    <stationMagnitude publicID="smi:ch.ethz.sed/sc3a/StationMagnitude/20220216071257.957882.47467620">
      <originID>smi:ch.ethz.sed/sc3a/NLL.20220216071255.630177.6055</originID>
      <mag>
        <value>5.590707779</value>
      </mag>
      <type>MVS</type>
      <waveformID networkCode="GI" stationCode="RERE" locationCode="00" channelCode="HN"/>
      <creationInfo>
        <agencyID>insivumeh</agencyID>
        <author>scvsmag@EW-SYSTEM</author>
        <creationTime>2022-02-16T07:12:57.957876Z</creationTime>
        <version>10</version>
      </creationInfo>
    </stationMagnitude>
    <stationMagnitude publicID="smi:ch.ethz.sed/sc3a/StationMagnitude/20220216071257.958069.47467621">
      <originID>smi:ch.ethz.sed/sc3a/NLL.20220216071255.630177.6055</originID>
      <mag>
        <value>5.616336823</value>
      </mag>
      <type>MVS</type>
      <waveformID networkCode="GI" stationCode="SUCU" channelCode="HH"/>
      <creationInfo>
        <agencyID>insivumeh</agencyID>
        <author>scvsmag@EW-SYSTEM</author>
        <creationTime>2022-02-16T07:12:57.958061Z</creationTime>
        <version>10</version>
      </creationInfo>
    </stationMagnitude>
    <stationMagnitude publicID="smi:ch.ethz.sed/sc3a/StationMagnitude/20220216071258.879966.72142235">
      <originID>smi:ch.ethz.sed/sc3a/NLL.20220216071255.630177.6055</originID>
      <mag>
        <value>6.153024197</value>
      </mag>
      <type>MVS</type>
      <waveformID networkCode="GI" stationCode="CMSM" channelCode="HH"/>
      <creationInfo>
        <agencyID>insivumeh</agencyID>
        <author>scvsmag0@EW-SYSTEM</author>
        <creationTime>2022-02-16T07:12:58.879945Z</creationTime>
        <version>11</version>
      </creationInfo>
    </stationMagnitude>
    <stationMagnitude publicID="smi:ch.ethz.sed/sc3a/StationMagnitude/20220216071258.880125.72142236">
      <originID>smi:ch.ethz.sed/sc3a/NLL.20220216071255.630177.6055</originID>
      <mag>
        <value>6.988557339</value>
      </mag>
      <type>MVS</type>
